[Satellite]
VERSION=1.1
NAME=FLOCK 3P-50
NICKNAME=FLOCK 3P-50
TLE1=1 42029U 17008CK  18020.85207482  .00001271  00000-0  55724-4 0  9998
TLE2=2 42029  97.4704  86.5716 0008684 159.2497 200.9094 15.23821370 50849
